{"type": "FeatureCollection", "features": [{"type": "Feature", "geometry": {"type": "Point", "coordinates": [-110.9587303, 29.084369]}, "properties": {"highway": "traffic_signals"}}, {"type": "Feature", "geometry": {"type": "Point", "coordinates": [-110.9758535, 29.0923376]}, "properties": {"highway": "traffic_signals"}}, {"type": "Feature", "geometry": {"type": "Point", "coordinates": [-110.9895006, 29.0889062]}, "properties": {"highway": "traffic_signals"}}, {"type": "Feature", "geometry": {"type": "Point", "coordinates": [-110.9892887, 29.0889179]}, "properties": {"highway": "traffic_signals"}}, {"type": "Feature", "geometry": {"type": "Point", "coordinates": [-110.9893732, 29.0887644]}, "properties": {"highway": "traffic_signals"}}, {"type": "Feature", "geometry": {"type": "Point", "coordinates": [-110.9576621, 29.0845142]}, "properties": {"highway": "traffic_signals"}}, {"type": "Feature", "geometry": {"type": "Point", "coordinates": [-110.9588463, 29.0842046]}, "properties": {"highway": "traffic_signals"}}, {"type": "Feature", "geometry": {"type": "Point", "coordinates": [-110.9990385, 29.0884873]}, "properties": {"highway": "traffic_signals"}}, {"type": "Feature", "geometry": {"type": "Point", "coordinates": [-110.9922733, 29.0888371]}, "properties": {"highway": "traffic_signals"}}, {"type": "Feature", "geometry": {"type": "Point", "coordinates": [-110.9922827, 29.0889742]}, "properties": {"highway": "traffic_signals"}}, {"type": "Feature", "geometry": {"type": "Point", "coordinates": [-110.9924812, 29.0889654]}, "properties": {"highway": "traffic_signals"}}, {"type": "Feature", "geometry": {"type": "Point", "coordinates": [-110.9924698, 29.0888242]}, "properties": {"highway": "traffic_signals"}}, {"type": "Feature", "geometry": {"type": "Point", "coordinates": [-110.9413067, 29.033003]}, "properties": {"highway": "traffic_signals"}}, {"type": "Feature", "geometry": {"type": "Point", "coordinates": [-110.9588851, 29.0843549]}, "properties": {"highway": "traffic_signals"}}, {"type": "Feature", "geometry": {"type": "Point", "coordinates": [-110.9670147, 29.0801041]}, "properties": {"highway": "traffic_signals", "traffic_signals": "signal", "traffic_signals:direction": "forward"}}, {"type": "Feature", "geometry": {"type": "Point", "coordinates": [-111.0010656, 29.0834834]}, "properties": {"highway": "traffic_signals"}}, {"type": "Feature", "geometry": {"type": "Point", "coordinates": [-110.9530762, 29.085545]}, "properties": {"highway": "traffic_signals", "traffic_signals": "signal"}}, {"type": "Feature", "geometry": {"type": "Point", "coordinates": [-111.0196017, 29.0561123]}, "properties": {"highway": "traffic_signals"}}, {"type": "Feature", "geometry": {"type": "Point", "coordinates": [-110.9605569, 29.0256732]}, "properties": {"highway": "traffic_signals"}}, {"type": "Feature", "geometry": {"type": "Point", "coordinates": [-110.9603798, 29.0256579]}, "properties": {"highway": "traffic_signals"}}, {"type": "Feature", "geometry": {"type": "Point", "coordinates": [-110.9721486, 29.0907433]}, "properties": {"highway": "traffic_signals"}}, {"type": "Feature", "geometry": {"type": "Point", "coordinates": [-110.9920022, 29.0849211]}, "properties": {"highway": "traffic_signals"}}, {"type": "Feature", "geometry": {"type": "Point", "coordinates": [-110.9922005, 29.0849207]}, "properties": {"highway": "traffic_signals"}}, {"type": "Feature", "geometry": {"type": "Point", "coordinates": [-110.9594966, 29.0321059]}, "properties": {"highway": "traffic_signals"}}, {"type": "Feature", "geometry": {"type": "Point", "coordinates": [-110.9595153, 29.0319792]}, "properties": {"highway": "traffic_signals"}}, {"type": "Feature", "geometry": {"type": "Point", "coordinates": [-110.9486733, 29.035]}, "properties": {"highway": "traffic_signals"}}, {"type": "Feature", "geometry": {"type": "Point", "coordinates": [-110.9485309, 29.0349619]}, "properties": {"highway": "traffic_signals"}}, {"type": "Feature", "geometry": {"type": "Point", "coordinates": [-110.9541451, 29.0364587]}, "properties": {"highway": "traffic_signals"}}, {"type": "Feature", "geometry": {"type": "Point", "coordinates": [-110.9541814, 29.0363425]}, "properties": {"highway": "traffic_signals"}}, {"type": "Feature", "geometry": {"type": "Point", "coordinates": [-111.0059237, 29.0825482]}, "properties": {"highway": "traffic_signals"}}, {"type": "Feature", "geometry": {"type": "Point", "coordinates": [-111.0011164, 29.0836259]}, "properties": {"highway": "traffic_signals"}}, {"type": "Feature", "geometry": {"type": "Point", "coordinates": [-111.0009675, 29.083513]}, "properties": {"highway": "traffic_signals"}}, {"type": "Feature", "geometry": {"type": "Point", "coordinates": [-111.0010274, 29.0836534]}, "properties": {"highway": "traffic_signals"}}, {"type": "Feature", "geometry": {"type": "Point", "coordinates": [-110.9990291, 29.0886419]}, "properties": {"highway": "traffic_signals"}}, {"type": "Feature", "geometry": {"type": "Point", "coordinates": [-110.9845881, 29.0934228]}, "properties": {"highway": "traffic_signals"}}, {"type": "Feature", "geometry": {"type": "Point", "coordinates": [-110.9844098, 29.0935915]}, "properties": {"highway": "traffic_signals"}}, {"type": "Feature", "geometry": {"type": "Point", "coordinates": [-110.9920299, 29.0853]}, "properties": {"highway": "traffic_signals"}}, {"type": "Feature", "geometry": {"type": "Point", "coordinates": [-110.9922304, 29.0853006]}, "properties": {"highway": "traffic_signals"}}, {"type": "Feature", "geometry": {"type": "Point", "coordinates": [-111.0223081, 29.0816491]}, "properties": {"highway": "traffic_signals", "traffic_signals": "signal"}}, {"type": "Feature", "geometry": {"type": "Point", "coordinates": [-111.022642, 29.0816317]}, "properties": {"highway": "traffic_signals", "traffic_signals": "signal"}}, {"type": "Feature", "geometry": {"type": "Point", "coordinates": [-111.0223128, 29.0818248]}, "properties": {"highway": "traffic_signals", "traffic_signals": "signal"}}, {"type": "Feature", "geometry": {"type": "Point", "coordinates": [-111.0226487, 29.081811]}, "properties": {"highway": "traffic_signals", "traffic_signals": "signal"}}, {"type": "Feature", "geometry": {"type": "Point", "coordinates": [-110.9596669, 29.0321235]}, "properties": {"highway": "traffic_signals"}}, {"type": "Feature", "geometry": {"type": "Point", "coordinates": [-110.9596877, 29.0319909]}, "properties": {"highway": "traffic_signals"}}, {"type": "Feature", "geometry": {"type": "Point", "coordinates": [-110.9485661, 29.0348313]}, "properties": {"highway": "traffic_signals"}}, {"type": "Feature", "geometry": {"type": "Point", "coordinates": [-110.972176, 29.0910153]}, "properties": {"highway": "traffic_signals"}}, {"type": "Feature", "geometry": {"type": "Point", "coordinates": [-110.9891653, 29.0887784]}, "properties": {"highway": "traffic_signals"}}, {"type": "Feature", "geometry": {"type": "Point", "coordinates": [-110.9862611, 29.0853417]}, "properties": {"highway": "traffic_signals"}}, {"type": "Feature", "geometry": {"type": "Point", "coordinates": [-110.9861451, 29.0852174]}, "properties": {"highway": "traffic_signals"}}, {"type": "Feature", "geometry": {"type": "Point", "coordinates": [-110.9860647, 29.0853434]}, "properties": {"highway": "traffic_signals"}}, {"type": "Feature", "geometry": {"type": "Point", "coordinates": [-110.9859426, 29.0852227]}, "properties": {"highway": "traffic_signals"}}, {"type": "Feature", "geometry": {"type": "Point", "coordinates": [-110.9667715, 29.0618506]}, "properties": {"highway": "traffic_signals", "traffic_signals": "signal"}}, {"type": "Feature", "geometry": {"type": "Point", "coordinates": [-110.9669204, 29.0618225]}, "properties": {"highway": "traffic_signals", "traffic_signals": "signal"}}, {"type": "Feature", "geometry": {"type": "Point", "coordinates": [-110.9581766, 29.0808278]}, "properties": {"highway": "traffic_signals", "traffic_signals": "signal", "traffic_signals:direction": "forward"}}, {"type": "Feature", "geometry": {"type": "Point", "coordinates": [-110.9669522, 29.0619632]}, "properties": {"highway": "traffic_signals", "traffic_signals": "signal"}}, {"type": "Feature", "geometry": {"type": "Point", "coordinates": [-110.966797, 29.0619889]}, "properties": {"highway": "traffic_signals", "traffic_signals": "signal"}}, {"type": "Feature", "geometry": {"type": "Point", "coordinates": [-110.9577768, 29.0844996]}, "properties": {"highway": "traffic_signals"}}, {"type": "Feature", "geometry": {"type": "Point", "coordinates": [-110.9965649, 29.0848172]}, "properties": {"highway": "traffic_signals"}}, {"type": "Feature", "geometry": {"type": "Point", "coordinates": [-110.9966178, 29.0849619]}, "properties": {"highway": "traffic_signals"}}, {"type": "Feature", "geometry": {"type": "Point", "coordinates": [-111.0008983, 29.0833633]}, "properties": {"highway": "traffic_signals"}}, {"type": "Feature", "geometry": {"type": "Point", "coordinates": [-111.0010003, 29.0833312]}, "properties": {"highway": "traffic_signals"}}, {"type": "Feature", "geometry": {"type": "Point", "coordinates": [-110.9922151, 29.0851017]}, "properties": {"highway": "traffic_signals"}}, {"type": "Feature", "geometry": {"type": "Point", "coordinates": [-110.9920148, 29.0851043]}, "properties": {"highway": "traffic_signals"}}, {"type": "Feature", "geometry": {"type": "Point", "coordinates": [-111.0060512, 29.0825458]}, "properties": {"highway": "traffic_signals"}}, {"type": "Feature", "geometry": {"type": "Point", "coordinates": [-110.958741, 29.0375258]}, "properties": {"highway": "traffic_signals"}}, {"type": "Feature", "geometry": {"type": "Point", "coordinates": [-110.9587075, 29.0377404]}, "properties": {"highway": "traffic_signals"}}, {"type": "Feature", "geometry": {"type": "Point", "coordinates": [-110.9584647, 29.0374461]}, "properties": {"highway": "traffic_signals"}}, {"type": "Feature", "geometry": {"type": "Point", "coordinates": [-110.9584223, 29.0376544]}, "properties": {"highway": "traffic_signals"}}, {"type": "Feature", "geometry": {"type": "Point", "coordinates": [-110.94142, 29.0328479]}, "properties": {"highway": "traffic_signals"}}, {"type": "Feature", "geometry": {"type": "Point", "coordinates": [-110.9576242, 29.0843292]}, "properties": {"highway": "traffic_signals"}}, {"type": "Feature", "geometry": {"type": "Point", "coordinates": [-110.9577315, 29.084316]}, "properties": {"highway": "traffic_signals"}}, {"type": "Feature", "geometry": {"type": "Point", "coordinates": [-111.0199725, 29.056029]}, "properties": {"highway": "traffic_signals", "traffic_signals": "signal"}}, {"type": "Feature", "geometry": {"type": "Point", "coordinates": [-111.0059559, 29.0823718]}, "properties": {"highway": "traffic_signals"}}, {"type": "Feature", "geometry": {"type": "Point", "coordinates": [-111.0060927, 29.0823642]}, "properties": {"highway": "traffic_signals"}}, {"type": "Feature", "geometry": {"type": "Point", "coordinates": [-110.9920228, 29.0852233]}, "properties": {"highway": "traffic_signals"}}, {"type": "Feature", "geometry": {"type": "Point", "coordinates": [-110.9922238, 29.0852186]}, "properties": {"highway": "traffic_signals"}}, {"type": "Feature", "geometry": {"type": "Point", "coordinates": [-110.9309063, 29.0201738]}, "properties": {"highway": "traffic_signals"}}, {"type": "Feature", "geometry": {"type": "Point", "coordinates": [-110.965946, 29.0822818]}, "properties": {"highway": "traffic_signals", "traffic_signals": "signal", "traffic_signals:direction": "forward"}}, {"type": "Feature", "geometry": {"type": "Point", "coordinates": [-110.965758, 29.0802221]}, "properties": {"highway": "traffic_signals", "traffic_signals": "signal", "traffic_signals:direction": "forward"}}, {"type": "Feature", "geometry": {"type": "Point", "coordinates": [-110.953103, 29.1455154]}, "properties": {"highway": "traffic_signals", "traffic_signals": "signal"}}, {"type": "Feature", "geometry": {"type": "Point", "coordinates": [-110.9720293, 29.0908456]}, "properties": {"highway": "traffic_signals"}}, {"type": "Feature", "geometry": {"type": "Point", "coordinates": [-110.9581488, 29.0806666]}, "properties": {"highway": "traffic_signals", "traffic_signals": "signal", "traffic_signals:direction": "forward"}}, {"type": "Feature", "geometry": {"type": "Point", "coordinates": [-110.9318114, 29.0083334]}, "properties": {"highway": "traffic_signals"}}, {"type": "Feature", "geometry": {"type": "Point", "coordinates": [-110.9315858, 29.0084009]}, "properties": {"highway": "traffic_signals"}}, {"type": "Feature", "geometry": {"type": "Point", "coordinates": [-110.9318941, 29.0085246]}, "properties": {"highway": "traffic_signals"}}, {"type": "Feature", "geometry": {"type": "Point", "coordinates": [-110.9316765, 29.0086017]}, "properties": {"highway": "traffic_signals"}}, {"type": "Feature", "geometry": {"type": "Point", "coordinates": [-110.967436, 29.0801379]}, "properties": {"highway": "traffic_signals", "traffic_signals": "signal", "traffic_signals:direction": "forward"}}, {"type": "Feature", "geometry": {"type": "Point", "coordinates": [-110.9661671, 29.0801782]}, "properties": {"highway": "traffic_signals", "traffic_signals": "signal", "traffic_signals:direction": "forward"}}, {"type": "Feature", "geometry": {"type": "Point", "coordinates": [-110.9659538, 29.0800038]}, "properties": {"highway": "traffic_signals", "traffic_signals": "signal", "traffic_signals:direction": "forward"}}, {"type": "Feature", "geometry": {"type": "Point", "coordinates": [-110.9658398, 29.0801476]}, "properties": {"highway": "traffic_signals", "traffic_signals": "signal", "traffic_signals:direction": "forward"}}, {"type": "Feature", "geometry": {"type": "Point", "coordinates": [-110.9660902, 29.0800612]}, "properties": {"highway": "traffic_signals", "traffic_signals": "signal", "traffic_signals:direction": "forward"}}, {"type": "Feature", "geometry": {"type": "Point", "coordinates": [-110.9730837, 29.0615685]}, "properties": {"highway": "traffic_signals", "traffic_signals": "signal", "traffic_signals:direction": "forward"}}, {"type": "Feature", "geometry": {"type": "Point", "coordinates": [-110.9729034, 29.0617675]}, "properties": {"highway": "traffic_signals", "traffic_signals": "signal", "traffic_signals:direction": "forward"}}, {"type": "Feature", "geometry": {"type": "Point", "coordinates": [-110.9729656, 29.0614611]}, "properties": {"highway": "traffic_signals", "traffic_signals": "signal", "traffic_signals:direction": "backward"}}, {"type": "Feature", "geometry": {"type": "Point", "coordinates": [-110.9728084, 29.0616881]}, "properties": {"highway": "traffic_signals", "traffic_signals": "signal", "traffic_signals:direction": "forward"}}, {"type": "Feature", "geometry": {"type": "Point", "coordinates": [-110.9783372, 29.0616994]}, "properties": {"highway": "traffic_signals", "traffic_signals": "signal", "traffic_signals:direction": "forward"}}, {"type": "Feature", "geometry": {"type": "Point", "coordinates": [-110.977959, 29.0618191]}, "properties": {"highway": "traffic_signals", "traffic_signals": "signal", "traffic_signals:direction": "forward"}}, {"type": "Feature", "geometry": {"type": "Point", "coordinates": [-110.9781424, 29.061936]}, "properties": {"highway": "traffic_signals", "traffic_signals": "signal", "traffic_signals:direction": "forward"}}, {"type": "Feature", "geometry": {"type": "Point", "coordinates": [-110.976992, 29.0615466]}, "properties": {"direction": "backward", "highway": "traffic_signals", "traffic_signals": "signal"}}, {"type": "Feature", "geometry": {"type": "Point", "coordinates": [-110.9310686, 29.0198789]}, "properties": {"highway": "traffic_signals", "traffic_signals": "traffic_lights"}}, {"type": "Feature", "geometry": {"type": "Point", "coordinates": [-110.9308292, 29.0199538]}, "properties": {"highway": "traffic_signals"}}, {"type": "Feature", "geometry": {"type": "Point", "coordinates": [-110.9312224, 29.0200906]}, "properties": {"highway": "traffic_signals"}}, {"type": "Feature", "geometry": {"type": "Point", "coordinates": [-110.9582487, 29.0817361]}, "properties": {"highway": "traffic_signals", "traffic_signals": "signal", "traffic_signals:direction": "forward"}}, {"type": "Feature", "geometry": {"type": "Point", "coordinates": [-110.9583186, 29.0817221]}, "properties": {"highway": "traffic_signals", "traffic_signals": "signal", "traffic_signals:direction": "forward"}}, {"type": "Feature", "geometry": {"type": "Point", "coordinates": [-110.9583448, 29.0817175]}, "properties": {"highway": "traffic_signals", "traffic_signals": "signal", "traffic_signals:direction": "forward"}}, {"type": "Feature", "geometry": {"type": "Point", "coordinates": [-110.9581164, 29.0816416]}, "properties": {"highway": "traffic_signals", "traffic_signals": "signal", "traffic_signals:direction": "forward"}}, {"type": "Feature", "geometry": {"type": "Point", "coordinates": [-110.9580277, 29.0807835]}, "properties": {"highway": "traffic_signals", "traffic_signals": "signal", "traffic_signals:direction": "forward"}}, {"type": "Feature", "geometry": {"type": "Point", "coordinates": [-110.9700963, 29.0906382]}, "properties": {"highway": "traffic_signals", "traffic_signals": "signal", "traffic_signals:direction": "both"}}, {"type": "Feature", "geometry": {"type": "Point", "coordinates": [-110.9722254, 29.0907704]}, "properties": {"highway": "traffic_signals"}}, {"type": "Feature", "geometry": {"type": "Point", "coordinates": [-110.9758057, 29.0921757]}, "properties": {"highway": "traffic_signals"}}, {"type": "Feature", "geometry": {"type": "Point", "coordinates": [-110.9772029, 29.0616621]}, "properties": {"direction": "backward", "highway": "traffic_signals", "traffic_signals": "signal", "traffic_signals:direction": "forward"}}, {"type": "Feature", "geometry": {"type": "Point", "coordinates": [-110.9768408, 29.0617928]}, "properties": {"direction": "backward", "highway": "traffic_signals", "traffic_signals": "signal", "traffic_signals:direction": "forward"}}]}